{
  "type": "FeatureCollection",
  "features": [
    {
      "type": "Feature",
      "properties": {
        "norad_id": 66569,
        "name": "STARLINK-35835",
        "group": "last-30-days",
        "lat": 33.671038142740905,
        "lon": -61.78040827910962,
        "alt_km": 363.702774358675,
        "timestamp": "2025-12-05T11:32:54.810248+00:00",
        "meta_object_name": "STARLINK-35835",
        "meta_object_id": "2025-268N",
        "meta_epoch": "2025-12-04T18:00:02.000160",
        "meta_mean_motion": 15.69902128,
        "meta_eccentricity": 0.000162,
        "meta_inclination": 42.9988,
        "meta_ra_of_asc_node": 168.2513,
        "meta_arg_of_pericenter": 266.9073,
        "meta_mean_anomaly": 45.3566,
        "meta_ephemeris_type": 0,
        "meta_classification_type": "U",
        "meta_norad_cat_id": 66569,
        "meta_element_set_no": 999,
        "meta_rev_at_epoch": 338,
        "meta_bstar": -0.01775,
        "meta_mean_motion_dot": -0.01938737,
        "meta_mean_motion_ddot": 0,
        "tle_line1": "1 66569U 25268N   25338.75002315 -.01938737  00000+0 -17750-1 0  9999",
        "tle_line2": "2 66569  42.9988 168.2513 0001620 266.9073  45.3566 15.69902128  3388"
      },
      "geometry": {
        "type": "Point",
        "coordinates": [
          -61.78040827910962,
          33.671038142740905
        ]
      }
    },
    {
      "type": "Feature",
      "properties": {
        "norad_id": 66570,
        "name": "STARLINK-35834",
        "group": "last-30-days",
        "lat": 32.73892554829977,
        "lon": -59.777865845647256,
        "alt_km": 363.80401834687564,
        "timestamp": "2025-12-05T11:32:54.810257+00:00",
        "meta_object_name": "STARLINK-35834",
        "meta_object_id": "2025-268P",
        "meta_epoch": "2025-12-04T18:00:02.000160",
        "meta_mean_motion": 15.69903634,
        "meta_eccentricity": 0.0001646,
        "meta_inclination": 42.9986,
        "meta_ra_of_asc_node": 168.2461,
        "meta_arg_of_pericenter": 265.5935,
        "meta_mean_anomaly": 48.5851,
        "meta_ephemeris_type": 0,
        "meta_classification_type": "U",
        "meta_norad_cat_id": 66570,
        "meta_element_set_no": 999,
        "meta_rev_at_epoch": 338,
        "meta_bstar": -0.017741,
        "meta_mean_motion_dot": -0.01938013,
        "meta_mean_motion_ddot": 0,
        "tle_line1": "1 66570U 25268P   25338.75002315 -.01938013  00000+0 -17741-1 0  9998",
        "tle_line2": "2 66570  42.9986 168.2461 0001646 265.5935  48.5851 15.69903634  3385"
      },
      "geometry": {
        "type": "Point",
        "coordinates": [
          -59.777865845647256,
          32.73892554829977
        ]
      }
    },
    {
      "type": "Feature",
      "properties": {
        "norad_id": 66571,
        "name": "STARLINK-35836",
        "group": "last-30-days",
        "lat": 31.777155320800713,
        "lon": -57.81980041169523,
        "alt_km": 363.9017972371057,
        "timestamp": "2025-12-05T11:32:54.810270+00:00",
        "meta_object_name": "STARLINK-35836",
        "meta_object_id": "2025-268Q",
        "meta_epoch": "2025-12-04T18:00:02.000160",
        "meta_mean_motion": 15.69904894,
        "meta_eccentricity": 0.0001572,
        "meta_inclination": 42.9986,
        "meta_ra_of_asc_node": 168.2416,
        "meta_arg_of_pericenter": 266.0223,
        "meta_mean_anomaly": 50.0736,
        "meta_ephemeris_type": 0,
        "meta_classification_type": "U",
        "meta_norad_cat_id": 66571,
        "meta_element_set_no": 999,
        "meta_rev_at_epoch": 338,
        "meta_bstar": -0.017762,
        "meta_mean_motion_dot": -0.01940112,
        "meta_mean_motion_ddot": 0,
        "tle_line1": "1 66571U 25268Q   25338.75002315 -.01940112  00000+0 -17762-1 0  9995",
        "tle_line2": "2 66571  42.9986 168.2416 0001572 266.0223  50.0736 15.69904894  3389"
      },
      "geometry": {
        "type": "Point",
        "coordinates": [
          -57.81980041169523,
          31.777155320800713
        ]
      }
    },
    {
      "type": "Feature",
      "properties": {
        "norad_id": 66572,
        "name": "STARLINK-35870",
        "group": "last-30-days",
        "lat": 30.785594482150653,
        "lon": -55.90133726943659,
        "alt_km": 363.98441565696976,
        "timestamp": "2025-12-05T11:32:54.810279+00:00",
        "meta_object_name": "STARLINK-35870",
        "meta_object_id": "2025-268R",
        "meta_epoch": "2025-12-04T18:00:02.000160",
        "meta_mean_motion": 15.69903133,
        "meta_eccentricity": 0.0001605,
        "meta_inclination": 42.9986,
        "meta_ra_of_asc_node": 168.2379,
        "meta_arg_of_pericenter": 263.5387,
        "meta_mean_anomaly": 54.4747,
        "meta_ephemeris_type": 0,
        "meta_classification_type": "U",
        "meta_norad_cat_id": 66572,
        "meta_element_set_no": 999,
        "meta_rev_at_epoch": 338,
        "meta_bstar": -0.017737,
        "meta_mean_motion_dot": -0.0193758,
        "meta_mean_motion_ddot": 0,
        "tle_line1": "1 66572U 25268R   25338.75002315 -.01937580  00000+0 -17737-1 0  9993",
        "tle_line2": "2 66572  42.9986 168.2379 0001605 263.5387  54.4747 15.69903133  3383"
      },
      "geometry": {
        "type": "Point",
        "coordinates": [
          -55.90133726943659,
          30.785594482150653
        ]
      }
    },
    {
      "type": "Feature",
      "properties": {
        "norad_id": 66573,
        "name": "STARLINK-35650",
        "group": "last-30-days",
        "lat": 29.76280082773618,
        "lon": -54.018688269008365,
        "alt_km": 364.30611866543586,
        "timestamp": "2025-12-05T11:32:54.810291+00:00",
        "meta_object_name": "STARLINK-35650",
        "meta_object_id": "2025-268S",
        "meta_epoch": "2025-12-04T18:00:02.000160",
        "meta_mean_motion": 15.69890847,
        "meta_eccentricity": 0.0001677,
        "meta_inclination": 42.9986,
        "meta_ra_of_asc_node": 168.2319,
        "meta_arg_of_pericenter": 271.6892,
        "meta_mean_anomaly": 48.2501,
        "meta_ephemeris_type": 0,
        "meta_classification_type": "U",
        "meta_norad_cat_id": 66573,
        "meta_element_set_no": 999,
        "meta_rev_at_epoch": 338,
        "meta_bstar": -0.017622,
        "meta_mean_motion_dot": -0.01925642,
        "meta_mean_motion_ddot": 0,
        "tle_line1": "1 66573U 25268S   25338.75002315 -.01925642  00000+0 -17622-1 0  9993",
        "tle_line2": "2 66573  42.9986 168.2319 0001677 271.6892  48.2501 15.69890847  3384"
      },
      "geometry": {
        "type": "Point",
        "coordinates": [
          -54.018688269008365,
          29.76280082773618
        ]
      }
    },
    {
      "type": "Feature",
      "properties": {
        "norad_id": 66574,
        "name": "STARLINK-35812",
        "group": "last-30-days",
        "lat": 28.721708313590185,
        "lon": -52.18760185839764,
        "alt_km": 364.38377393674,
        "timestamp": "2025-12-05T11:32:54.810301+00:00",
        "meta_object_name": "STARLINK-35812",
        "meta_object_id": "2025-268T",
        "meta_epoch": "2025-12-04T18:00:02.000160",
        "meta_mean_motion": 15.69898051,
        "meta_eccentricity": 0.000165,
        "meta_inclination": 42.9987,
        "meta_ra_of_asc_node": 168.2266,
        "meta_arg_of_pericenter": 268.3918,
        "meta_mean_anomaly": 53.4606,
        "meta_ephemeris_type": 0,
        "meta_classification_type": "U",
        "meta_norad_cat_id": 66574,
        "meta_element_set_no": 999,
        "meta_rev_at_epoch": 338,
        "meta_bstar": -0.017714,
        "meta_mean_motion_dot": -0.01935031,
        "meta_mean_motion_ddot": 0,
        "tle_line1": "1 66574U 25268T   25338.75002315 -.01935031  00000+0 -17714-1 0  9999",
        "tle_line2": "2 66574  42.9987 168.2266 0001650 268.3918  53.4606 15.69898051  3389"
      },
      "geometry": {
        "type": "Point",
        "coordinates": [
          -52.18760185839764,
          28.721708313590185
        ]
      }
    },
    {
      "type": "Feature",
      "properties": {
        "norad_id": 66575,
        "name": "STARLINK-35810",
        "group": "last-30-days",
        "lat": 27.65152639514525,
        "lon": -50.384807696023515,
        "alt_km": 364.44286058564194,
        "timestamp": "2025-12-05T11:32:54.810313+00:00",
        "meta_object_name": "STARLINK-35810",
        "meta_object_id": "2025-268U",
        "meta_epoch": "2025-12-04T18:00:02.000160",
        "meta_mean_motion": 15.69898831,
        "meta_eccentricity": 0.0001636,
        "meta_inclination": 42.9987,
        "meta_ra_of_asc_node": 168.2219,
        "meta_arg_of_pericenter": 265.6192,
        "meta_mean_anomaly": 58.1486,
        "meta_ephemeris_type": 0,
        "meta_classification_type": "U",
        "meta_norad_cat_id": 66575,
        "meta_element_set_no": 999,
        "meta_rev_at_epoch": 338,
        "meta_bstar": -0.017707,
        "meta_mean_motion_dot": -0.01934366,
        "meta_mean_motion_ddot": 0,
        "tle_line1": "1 66575U 25268U   25338.75002315 -.01934366  00000+0 -17707-1 0  9992",
        "tle_line2": "2 66575  42.9987 168.2219 0001636 265.6192  58.1486 15.69898831  3380"
      },
      "geometry": {
        "type": "Point",
        "coordinates": [
          -50.384807696023515,
          27.65152639514525
        ]
      }
    }
  ]
}